{"type": "FeatureCollection", "features": [ {"type": "Feature", "properties": {"norad_id": 30411, "name": "FENGYUN 1C DEB", "group": "fengyun-1c-debris", "lat": -77.89959488826791, "lon": -61.825591213161196, "alt_km": 957.9150196623832, "timestamp": "2025-12-08T13:49:32.068966+00:00", "meta": {"OBJECT_NAME": "FENGYUN 1C DEB", "OBJECT_ID": "1999-025AEA", "EPOCH": "2025-12-07T16:02:32.563680", "MEAN_MOTION": 14.07608479, "ECCENTRICITY": 0.01221144, "INCLINATION": 98.5822, "RA_OF_ASC_NODE": 252.5316, "ARG_OF_PERICENTER": 121.0949, "MEAN_ANOMALY": 240.2271, "EPHEMERIS_TYPE": 0, "CLASSIFICATION_TYPE": "U", "NORAD_CAT_ID": 30411, "ELEMENT_SET_NO": 999, "REV_AT_EPOCH": 95912, "BSTAR": 0.0023650343, "MEAN_MOTION_DOT": 4.236e-05, "MEAN_MOTION_DDOT": 0}, "tle": {"line1": "1 30411U 99025AEA 25341.66843245  .00004236  00000+0  23650-2 0  9999", "line2": "2 30411  98.5822 252.5316 0122114 121.0949 240.2271 14.07608479959126"}}, "geometry": {"type": "Point", "coordinates": [-61.825591213161196, -77.89959488826791]}}, {"type": "Feature", "properties": {"norad_id": 30413, "name": "FENGYUN 1C DEB", "group": "fengyun-1c-debris", "lat": -59.61620679762303, "lon": -124.755621292095, "alt_km": 779.2543729379868, "timestamp": "2025-12-08T13:49:32.068976+00:00", "meta": {"OBJECT_NAME": "FENGYUN 1C DEB", "OBJECT_ID": "1999-025AEC", "EPOCH": "2025-12-07T10:26:44.380032", "MEAN_MOTION": 14.32445526, "ECCENTRICITY": 0.00458475, "INCLINATION": 102.0617, "RA_OF_ASC_NODE": 212.275, "ARG_OF_PERICENTER": 230.8485, "MEAN_ANOMALY": 306.6977, "EPHEMERIS_TYPE": 0, "CLASSIFICATION_TYPE": "U", "NORAD_CAT_ID": 30413, "ELEMENT_SET_NO": 999, "REV_AT_EPOCH": 97063, "BSTAR": 0.0033875731, "MEAN_MOTION_DOT": 9.219e-05, "MEAN_MOTION_DDOT": 0}, "tle": {"line1": "1 30413U 99025AEC 25341.43523588  .00009219  00000+0  33876-2 0  9998", "line2": "2 30413 102.0617 212.2750 0045847 230.8485 306.6977 14.32445526970636"}}, "geometry": {"type": "Point", "coordinates": [-124.755621292095, -59.61620679762303]}}, {"type": "Feature", "properties": {"norad_id": 30414, "name": "FENGYUN 1C DEB", "group": "fengyun-1c-debris", "lat": 2.827647238757778, "lon": 139.16487913990508, "alt_km": 820.7082626097008, "timestamp": "2025-12-08T13:49:32.068986+00:00", "meta": {"OBJECT_NAME": "FENGYUN 1C DEB", "OBJECT_ID": "1999-025AED", "EPOCH": "2025-12-06T23:17:51.361440", "MEAN_MOTION": 14.34025583, "ECCENTRICITY": 0.00586863, "INCLINATION": 99.0807, "RA_OF_ASC_NODE": 137.9327, "ARG_OF_PERICENTER": 205.3548, "MEAN_ANOMALY": 154.4753, "EPHEMERIS_TYPE": 0, "CLASSIFICATION_TYPE": "U", "NORAD_CAT_ID": 30414, "ELEMENT_SET_NO": 999, "REV_AT_EPOCH": 97004, "BSTAR": 0.0041356833, "MEAN_MOTION_DOT": 0.00011749, "MEAN_MOTION_DDOT": 0}, "tle": {"line1": "1 30414U 99025AED 25340.97073335  .00011749  00000+0  41357-2 0  9991", "line2": "2 30414  99.0807 137.9327 0058686 205.3548 154.4753 14.34025583970043"}}, "geometry": {"type": "Point", "coordinates": [139.16487913990508, 2.827647238757778]}}, {"type": "Feature", "properties": {"norad_id": 30415, "name": "FENGYUN 1C DEB", "group": "fengyun-1c-debris", "lat": -15.559807133670391, "lon": 45.53223087473668, "alt_km": 928.638414272813, "timestamp": "2025-12-08T13:49:32.068996+00:00", "meta": {"OBJECT_NAME": "FENGYUN 1C DEB", "OBJECT_ID": "1999-025AEE", "EPOCH": "2025-12-07T09:55:07.409280", "MEAN_MOTION": 13.68914896, "ECCENTRICITY": 0.02379851, "INCLINATION": 99.6457, "RA_OF_ASC_NODE": 41.6543, "ARG_OF_PERICENTER": 282.9647, "MEAN_ANOMALY": 91.5853, "EPHEMERIS_TYPE": 0, "CLASSIFICATION_TYPE": "U", "NORAD_CAT_ID": 30415, "ELEMENT_SET_NO": 999, "REV_AT_EPOCH": 93805, "BSTAR": 0.0018697796, "MEAN_MOTION_DOT": 1.919e-05, "MEAN_MOTION_DDOT": 0}, "tle": {"line1": "1 30415U 99025AEE 25341.41328020  .00001919  00000+0  18698-2 0  9996", "line2": "2 30415  99.6457  41.6543 0237985 282.9647  91.5853 13.68914896938051"}}, "geometry": {"type": "Point", "coordinates": [45.53223087473668, -15.559807133670391]}}, {"type": "Feature", "properties": {"norad_id": 30416, "name": "FENGYUN 1C DEB", "group": "fengyun-1c-debris", "lat": -44.81222757185563, "lon": 15.99964318840342, "alt_km": 907.0039067093949, "timestamp": "2025-12-08T13:49:32.069006+00:00", "meta": {"OBJECT_NAME": "FENGYUN 1C DEB", "OBJECT_ID": "1999-025AEF", "EPOCH": "2025-12-08T00:20:50.959680", "MEAN_MOTION": 14.02622304, "ECCENTRICITY": 0.00552475, "INCLINATION": 98.8349, "RA_OF_ASC_NODE": 6.5664, "ARG_OF_PERICENTER": 202.955, "MEAN_ANOMALY": 156.9147, "EPHEMERIS_TYPE": 0, "CLASSIFICATION_TYPE": "U", "NORAD_CAT_ID": 30416, "ELEMENT_SET_NO": 999, "REV_AT_EPOCH": 96558, "BSTAR": 0.00042882527, "MEAN_MOTION_DOT": 6.27e-06, "MEAN_MOTION_DDOT": 0}, "tle": {"line1": "1 30416U 99025AEF 25342.01447870  .00000627  00000+0  42883-3 0  9998", "line2": "2 30416  98.8349   6.5664 0055247 202.9550 156.9147 14.02622304965580"}}, "geometry": {"type": "Point", "coordinates": [15.99964318840342, -44.81222757185563]}}, {"type": "Feature", "properties": {"norad_id": 30417, "name": "FENGYUN 1C DEB", "group": "fengyun-1c-debris", "lat": -9.235083969358191, "lon": -25.905340929558037, "alt_km": 883.4787637976324, "timestamp": "2025-12-08T13:49:32.069016+00:00", "meta": {"OBJECT_NAME": "FENGYUN 1C DEB", "OBJECT_ID": "1999-025AEG", "EPOCH": "2025-12-08T05:28:36.037632", "MEAN_MOTION": 14.14656141, "ECCENTRICITY": 0.00643067, "INCLINATION": 98.6927, "RA_OF_ASC_NODE": 332.3306, "ARG_OF_PERICENTER": 132.748, "MEAN_ANOMALY": 247.8621, "EPHEMERIS_TYPE": 0, "CLASSIFICATION_TYPE": "U", "NORAD_CAT_ID": 30417, "ELEMENT_SET_NO": 999, "REV_AT_EPOCH": 97325, "BSTAR": 0.00046312546, "MEAN_MOTION_DOT": 8.66e-06, "MEAN_MOTION_DDOT": 0}, "tle": {"line1": "1 30417U 99025AEG 25342.22819488  .00000866  00000+0  46313-3 0  9997", "line2": "2 30417  98.6927 332.3306 0064306 132.7480 247.8621 14.14656141973251"}}, "geometry": {"type": "Point", "coordinates": [-25.905340929558037, -9.235083969358191]}}, {"type": "Feature", "properties": {"norad_id": 30418, "name": "FENGYUN 1C DEB", "group": "fengyun-1c-debris", "lat": 8.914402923114023, "lon": -36.68974966724164, "alt_km": 559.9304349611675, "timestamp": "2025-12-08T13:49:32.069027+00:00", "meta": {"OBJECT_NAME": "FENGYUN 1C DEB", "OBJECT_ID": "1999-025AEH", "EPOCH": "2025-12-07T23:04:03.285696", "MEAN_MOTION": 14.84078143, "ECCENTRICITY": 0.0111441, "INCLINATION": 98.8407, "RA_OF_ASC_NODE": 141.2305, "ARG_OF_PERICENTER": 130.7571, "MEAN_ANOMALY": 355.8881, "EPHEMERIS_TYPE": 0, "CLASSIFICATION_TYPE": "U", "NORAD_CAT_ID": 30418, "ELEMENT_SET_NO": 999, "REV_AT_EPOCH": 521, "BSTAR": 0.0013720652, "MEAN_MOTION_DOT": 0.00012729, "MEAN_MOTION_DDOT": 0}, "tle": {"line1": "1 30418U 99025AEH 25341.96114914  .00012729  00000+0  13721-2 0  9997", "line2": "2 30418  98.8407 141.2305 0111441 130.7571 355.8881 14.84078143  5212"}}, "geometry": {"type": "Point", "coordinates": [-36.68974966724164, 8.914402923114023]}}, {"type": "Feature", "properties": {"norad_id": 30419, "name": "FENGYUN 1C DEB", "group": "fengyun-1c-debris", "lat": -3.6666017544177874, "lon": 108.59892569903353, "alt_km": 867.5355143095849, "timestamp": "2025-12-08T13:49:32.069037+00:00", "meta": {"OBJECT_NAME": "FENGYUN 1C DEB", "OBJECT_ID": "1999-025AEJ", "EPOCH": "2025-12-07T20:18:50.865984", "MEAN_MOTION": 14.18014978, "ECCENTRICITY": 0.00530721, "INCLINATION": 99.2401, "RA_OF_ASC_NODE": 288.4377, "ARG_OF_PERICENTER": 38.4451, "MEAN_ANOMALY": 22.1539, "EPHEMERIS_TYPE": 0, "CLASSIFICATION_TYPE": "U", "NORAD_CAT_ID": 30419, "ELEMENT_SET_NO": 999, "REV_AT_EPOCH": 97279, "BSTAR": 0.0013799788, "MEAN_MOTION_DOT": 2.819e-05, "MEAN_MOTION_DDOT": 0}, "tle": {"line1": "1 30419U 99025AEJ 25341.84642206  .00002819  00000+0  13800-2 0  9992", "line2": "2 30419  99.2401 288.4377 0053072  38.4451  22.1539 14.18014978972794"}}, "geometry": {"type": "Point", "coordinates": [108.59892569903353, -3.6666017544177874]}}, {"type": "Feature", "properties": {"norad_id": 30432, "name": "FENGYUN 1C DEB", "group": "fengyun-1c-debris", "lat": -16.542890136394796, "lon": 58.6623313416592, "alt_km": 814.8228112328334, "timestamp": "2025-12-08T13:49:32.069048+00:00", "meta": {"OBJECT_NAME": "FENGYUN 1C DEB", "OBJECT_ID": "1999-025AET", "EPOCH": "2025-12-08T04:34:43.818816", "MEAN_MOTION": 14.40646301, "ECCENTRICITY": 0.00833329, "INCLINATION": 98.8351, "RA_OF_ASC_NODE": 240.9125, "ARG_OF_PERICENTER": 352.4309, "MEAN_ANOMALY": 7.5614, "EPHEMERIS_TYPE": 0, "CLASSIFICATION_TYPE": "U", "NORAD_CAT_ID": 30432, "ELEMENT_SET_NO": 999, "REV_AT_EPOCH": 98669, "BSTAR": 0.0011607169, "MEAN_MOTION_DOT": 3.812e-05, "MEAN_MOTION_DDOT": 0}, "tle": {"line1": "1 30432U 99025AET 25342.19078494  .00003812  00000+0  11607-2 0  9995", "line2": "2 30432  98.8351 240.9125 0083332 352.4309   7.5614 14.40646301986696"}}, "geometry": {"type": "Point", "coordinates": [58.6623313416592, -16.542890136394796]}}, {"type": "Feature", "properties": {"norad_id": 30434, "name": "FENGYUN 1C DEB", "group": "fengyun-1c-debris", "lat": 17.560155190646675, "lon": -33.35019828581591, "alt_km": 988.8391555293738, "timestamp": "2025-12-08T13:49:32.069058+00:00", "meta": {"OBJECT_NAME": "FENGYUN 1C DEB", "OBJECT_ID": "1999-025AEV", "EPOCH": "2025-12-08T05:12:12.237984", "MEAN_MOTION": 13.90645215, "ECCENTRICITY": 0.01207556, "INCLINATION": 98.9987, "RA_OF_ASC_NODE": 329.1762, "ARG_OF_PERICENTER": 243.606, "MEAN_ANOMALY": 135.7258, "EPHEMERIS_TYPE": 0, "CLASSIFICATION_TYPE": "U", "NORAD_CAT_ID": 30434, "ELEMENT_SET_NO": 999, "REV_AT_EPOCH": 95644, "BSTAR": 0.00053687194, "MEAN_MOTION_DOT": 6.67e-06, "MEAN_MOTION_DDOT": 0}, "tle": {"line1": "1 30434U 99025AEV 25342.21680831  .00000667  00000+0  53687-3 0  9994", "line2": "2 30434  98.9987 329.1762 0120755 243.6060 135.7258 13.90645215956442"}}, "geometry": {"type": "Point", "coordinates": [-33.35019828581591, 17.560155190646675]}}]}